MALLIGYONG-1            
1 58400U 23179A   24257.56266322  .00015204  00000+0  69388-3 0  9999
2 58400  97.3892 142.9126 0010156 118.2621 241.9641 15.20656117 45163
